ONEWEB-0228             
1 48780U 21045P   24144.28387120  .00000064  00000+0  13707-3 0  9995
2 48780  87.9053  49.4044 0001921  85.9018 274.2331 13.15549268145073
